HIMAWARI-8              
1 40267U 14060A   24108.51683014 -.00000284  00000+0  00000+0 0  9996
2 40267   0.0240 174.6664 0000913 233.2168 124.9385  1.00270391 34832
